[{"OBJECT_NAME":"STARLINK-32037","OBJECT_ID":"2024-132F","EPOCH":"2026-03-09T09:26:05.274240","MEAN_MOTION":15.30186883,"ECCENTRICITY":0.0001143,"INCLINATION":53.1605,"RA_OF_ASC_NODE":53.9022,"ARG_OF_PERICENTER":97.8508,"MEAN_ANOMALY":262.2622,"EPHEMERIS_TYPE":0,"CLASSIFICATION_TYPE":"U","NORAD_CAT_ID":60283,"ELEMENT_SET_NO":999,"REV_AT_EPOCH":9151,"BSTAR":1.4078825e-5,"MEAN_MOTION_DOT":5.8e-7,"MEAN_MOTION_DDOT":0},{"OBJECT_NAME":"FREGAT DEB","OBJECT_ID":"2011-037CH","EPOCH":"2026-03-09T16:32:56.542848","MEAN_MOTION":13.49190097,"ECCENTRICITY":0.09581895,"INCLINATION":51.3975,"RA_OF_ASC_NODE":253.381,"ARG_OF_PERICENTER":179.7939,"MEAN_ANOMALY":180.3545,"EPHEMERIS_TYPE":0,"CLASSIFICATION_TYPE":"U","NORAD_CAT_ID":45847,"ELEMENT_SET_NO":999,"REV_AT_EPOCH":24863,"BSTAR":0.010446039,"MEAN_MOTION_DOT":0.00171007,"MEAN_MOTION_DDOT":0}]
